{
  "type": "FeatureCollection",
  "features": [
    {
      "type": "Feature",
      "properties": {
        "norad_id": 30693,
        "name": "FENGYUN 1C DEB",
        "group": "fengyun-1c-debris",
        "lat": 60.771749691870916,
        "lon": -177.80540190827423,
        "alt_km": 820.7173382076335,
        "timestamp": "2025-12-27T15:27:11.468797+00:00",
        "meta_object_name": "FENGYUN 1C DEB",
        "meta_object_id": "1999-025ARB",
        "meta_epoch": "2025-12-26T21:54:25.361856",
        "meta_mean_motion": 14.13302674,
        "meta_eccentricity": 0.0029895,
        "meta_inclination": 98.6879,
        "meta_ra_of_asc_node": 345.6259,
        "meta_arg_of_pericenter": 127.3676,
        "meta_mean_anomaly": 233.0226,
        "meta_ephemeris_type": 0,
        "meta_classification_type": "U",
        "meta_norad_cat_id": 30693,
        "meta_element_set_no": 999,
        "meta_rev_at_epoch": 97135,
        "meta_bstar": 0.00032574,
        "meta_mean_motion_dot": 5.71e-06,
        "meta_mean_motion_ddot": 0,
        "tle_line1": "1 30693U 99025ARB 25360.91279354  .00000571  00000+0  32574-3 0  9998",
        "tle_line2": "2 30693  98.6879 345.6259 0029895 127.3676 233.0226 14.13302674971353"
      },
      "geometry": {
        "type": "Point",
        "coordinates": [
          -177.80540190827423,
          60.771749691870916
        ]
      }
    },
    {
      "type": "Feature",
      "properties": {
        "norad_id": 30694,
        "name": "FENGYUN 1C DEB",
        "group": "fengyun-1c-debris",
        "lat": -14.59086435959505,
        "lon": -27.723214313915797,
        "alt_km": 624.54335104866,
        "timestamp": "2025-12-27T15:27:11.468808+00:00",
        "meta_object_name": "FENGYUN 1C DEB",
        "meta_object_id": "1999-025ARC",
        "meta_epoch": "2025-12-26T10:26:52.071360",
        "meta_mean_motion": 14.86834467,
        "meta_eccentricity": 0.0129307,
        "meta_inclination": 99.0496,
        "meta_ra_of_asc_node": 328.5234,
        "meta_arg_of_pericenter": 250.7324,
        "meta_mean_anomaly": 107.9863,
        "meta_ephemeris_type": 0,
        "meta_classification_type": "U",
        "meta_norad_cat_id": 30694,
        "meta_element_set_no": 999,
        "meta_rev_at_epoch": 299,
        "meta_bstar": 0.0011102,
        "meta_mean_motion_dot": 0.00011476,
        "meta_mean_motion_ddot": 0,
        "tle_line1": "1 30694U 99025ARC 25360.43532490  .00011476  00000+0  11102-2 0  9998",
        "tle_line2": "2 30694  99.0496 328.5234 0129307 250.7324 107.9863 14.86834467  2998"
      },
      "geometry": {
        "type": "Point",
        "coordinates": [
          -27.723214313915797,
          -14.59086435959505
        ]
      }
    },
    {
      "type": "Feature",
      "properties": {
        "norad_id": 30696,
        "name": "FENGYUN 1C DEB",
        "group": "fengyun-1c-debris",
        "lat": -20.466084072537885,
        "lon": -132.68523471772343,
        "alt_km": 778.6265095175831,
        "timestamp": "2025-12-27T15:27:11.468818+00:00",
        "meta_object_name": "FENGYUN 1C DEB",
        "meta_object_id": "1999-025ARE",
        "meta_epoch": "2025-12-27T03:09:36.008928",
        "meta_mean_motion": 14.44842461,
        "meta_eccentricity": 0.00895439,
        "meta_inclination": 98.3874,
        "meta_ra_of_asc_node": 49.9656,
        "meta_arg_of_pericenter": 82.707,
        "meta_mean_anomaly": 334.2697,
        "meta_ephemeris_type": 0,
        "meta_classification_type": "U",
        "meta_norad_cat_id": 30696,
        "meta_element_set_no": 999,
        "meta_rev_at_epoch": 98512,
        "meta_bstar": 0.0008885085,
        "meta_mean_motion_dot": 3.201e-05,
        "meta_mean_motion_ddot": 0,
        "tle_line1": "1 30696U 99025ARE 25361.13166677  .00003201  00000+0  88851-3 0  9991",
        "tle_line2": "2 30696  98.3874  49.9656 0089543  82.7070 334.2697 14.44842461985124"
      },
      "geometry": {
        "type": "Point",
        "coordinates": [
          -132.68523471772343,
          -20.466084072537885
        ]
      }
    },
    {
      "type": "Feature",
      "properties": {
        "norad_id": 30697,
        "name": "FENGYUN 1C DEB",
        "group": "fengyun-1c-debris",
        "lat": 79.7184924768647,
        "lon": -61.761047947389656,
        "alt_km": 797.4794666064545,
        "timestamp": "2025-12-27T15:27:11.468829+00:00",
        "meta_object_name": "FENGYUN 1C DEB",
        "meta_object_id": "1999-025ARF",
        "meta_epoch": "2025-12-27T03:22:57.615168",
        "meta_mean_motion": 14.13601873,
        "meta_eccentricity": 0.00878024,
        "meta_inclination": 98.906,
        "meta_ra_of_asc_node": 57.9224,
        "meta_arg_of_pericenter": 145.2818,
        "meta_mean_anomaly": 272.5972,
        "meta_ephemeris_type": 0,
        "meta_classification_type": "U",
        "meta_norad_cat_id": 30697,
        "meta_element_set_no": 999,
        "meta_rev_at_epoch": 96464,
        "meta_bstar": 0.0015681465,
        "meta_mean_motion_dot": 3.025e-05,
        "meta_mean_motion_ddot": 0,
        "tle_line1": "1 30697U 99025ARF 25361.14094462  .00003025  00000+0  15681-2 0  9999",
        "tle_line2": "2 30697  98.9060  57.9224 0087802 145.2818 272.5972 14.13601873964649"
      },
      "geometry": {
        "type": "Point",
        "coordinates": [
          -61.761047947389656,
          79.7184924768647
        ]
      }
    },
    {
      "type": "Feature",
      "properties": {
        "norad_id": 30699,
        "name": "FENGYUN 1C DEB",
        "group": "fengyun-1c-debris",
        "lat": -39.26548191447913,
        "lon": -65.10992430437925,
        "alt_km": 737.8055036778769,
        "timestamp": "2025-12-27T15:27:11.468839+00:00",
        "meta_object_name": "FENGYUN 1C DEB",
        "meta_object_id": "1999-025ARH",
        "meta_epoch": "2025-12-26T06:54:44.743104",
        "meta_mean_motion": 14.47142909,
        "meta_eccentricity": 0.0004981,
        "meta_inclination": 99.312,
        "meta_ra_of_asc_node": 121.1084,
        "meta_arg_of_pericenter": 223.4387,
        "meta_mean_anomaly": 136.641,
        "meta_ephemeris_type": 0,
        "meta_classification_type": "U",
        "meta_norad_cat_id": 30699,
        "meta_element_set_no": 999,
        "meta_rev_at_epoch": 97809,
        "meta_bstar": 0.0023009,
        "meta_mean_motion_dot": 8.353e-05,
        "meta_mean_motion_ddot": 0,
        "tle_line1": "1 30699U 99025ARH 25360.28801786  .00008353  00000+0  23009-2 0  9992",
        "tle_line2": "2 30699  99.3120 121.1084 0004981 223.4387 136.6410 14.47142909978096"
      },
      "geometry": {
        "type": "Point",
        "coordinates": [
          -65.10992430437925,
          -39.26548191447913
        ]
      }
    },
    {
      "type": "Feature",
      "properties": {
        "norad_id": 30700,
        "name": "FENGYUN 1C DEB",
        "group": "fengyun-1c-debris",
        "lat": 32.95413796800149,
        "lon": -144.87862527876226,
        "alt_km": 766.6504017448215,
        "timestamp": "2025-12-27T15:27:11.468849+00:00",
        "meta_object_name": "FENGYUN 1C DEB",
        "meta_object_id": "1999-025ARJ",
        "meta_epoch": "2025-12-27T01:16:57.215136",
        "meta_mean_motion": 14.23806675,
        "meta_eccentricity": 0.00874359,
        "meta_inclination": 98.5403,
        "meta_ra_of_asc_node": 28.9577,
        "meta_arg_of_pericenter": 102.0501,
        "meta_mean_anomaly": 259.0493,
        "meta_ephemeris_type": 0,
        "meta_classification_type": "U",
        "meta_norad_cat_id": 30700,
        "meta_element_set_no": 999,
        "meta_rev_at_epoch": 97773,
        "meta_bstar": 0.00019745326,
        "meta_mean_motion_dot": 4.28e-06,
        "meta_mean_motion_ddot": 0,
        "tle_line1": "1 30700U 99025ARJ 25361.05343999  .00000428  00000+0  19745-3 0  9996",
        "tle_line2": "2 30700  98.5403  28.9577 0087435 102.0501 259.0493 14.23806675977732"
      },
      "geometry": {
        "type": "Point",
        "coordinates": [
          -144.87862527876226,
          32.95413796800149
        ]
      }
    },
    {
      "type": "Feature",
      "properties": {
        "norad_id": 30701,
        "name": "FENGYUN 1C DEB",
        "group": "fengyun-1c-debris",
        "lat": -8.075841402887278,
        "lon": 43.820144100422624,
        "alt_km": 840.7454035170094,
        "timestamp": "2025-12-27T15:27:11.468859+00:00",
        "meta_object_name": "FENGYUN 1C DEB",
        "meta_object_id": "1999-025ARK",
        "meta_epoch": "2025-12-27T02:09:54.197568",
        "meta_mean_motion": 14.13935729,
        "meta_eccentricity": 0.00356255,
        "meta_inclination": 98.7164,
        "meta_ra_of_asc_node": 42.033,
        "meta_arg_of_pericenter": 63.0451,
        "meta_mean_anomaly": 352.5781,
        "meta_ephemeris_type": 0,
        "meta_classification_type": "U",
        "meta_norad_cat_id": 30701,
        "meta_element_set_no": 999,
        "meta_rev_at_epoch": 97322,
        "meta_bstar": 1.7483937e-05,
        "meta_mean_motion_dot": -9e-08,
        "meta_mean_motion_ddot": 0,
        "tle_line1": "1 30701U 99025ARK 25361.09021062 -.00000009  00000+0  17484-4 0  9990",
        "tle_line2": "2 30701  98.7164  42.0330 0035625  63.0451 352.5781 14.13935729973228"
      },
      "geometry": {
        "type": "Point",
        "coordinates": [
          43.820144100422624,
          -8.075841402887278
        ]
      }
    }
  ]
}